COSMOS 2485 (747)       
1 39155U 13019A   26087.19744583  .00000045  00000+0  00000+0 0  9998
2 39155  65.3750  76.3211 0025141 237.7712 121.9957  2.13102903100559
